[{"OBJECT_NAME":"ONEWEB-0572","OBJECT_ID":"2023-004M","EPOCH":"2026-01-15T03:04:43.031712","MEAN_MOTION":13.17650575,"ECCENTRICITY":0.0001705,"INCLINATION":87.9088,"RA_OF_ASC_NODE":36.29,"ARG_OF_PERICENTER":99.1839,"MEAN_ANOMALY":260.9485,"EPHEMERIS_TYPE":0,"CLASSIFICATION_TYPE":"U","NORAD_CAT_ID":55151,"ELEMENT_SET_NO":999,"REV_AT_EPOCH":14732,"BSTAR":1.3597e-5,"MEAN_MOTION_DOT":1.8e-7,"MEAN_MOTION_DDOT":0},{"OBJECT_NAME":"ONEWEB-0573","OBJECT_ID":"2023-004N","EPOCH":"2026-01-14T22:04:20.946432","MEAN_MOTION":13.18686709,"ECCENTRICITY":0.0001719,"INCLINATION":87.9172,"RA_OF_ASC_NODE":5.9138,"ARG_OF_PERICENTER":114.2965,"MEAN_ANOMALY":245.8347,"EPHEMERIS_TYPE":0,"CLASSIFICATION_TYPE":"U","NORAD_CAT_ID":55152,"ELEMENT_SET_NO":999,"REV_AT_EPOCH":14949,"BSTAR":0.00012518,"MEAN_MOTION_DOT":6.2e-7,"MEAN_MOTION_DDOT":0},{"OBJECT_NAME":"ONEWEB-0588","OBJECT_ID":"2023-004P","EPOCH":"2026-01-14T16:27:03.604896","MEAN_MOTION":13.18685716,"ECCENTRICITY":0.0001918,"INCLINATION":87.9177,"RA_OF_ASC_NODE":5.9587,"ARG_OF_PERICENTER":100.5428,"MEAN_ANOMALY":259.592,"EPHEMERIS_TYPE":0,"CLASSIFICATION_TYPE":"U","NORAD_CAT_ID":55153,"ELEMENT_SET_NO":999,"REV_AT_EPOCH":14946,"BSTAR":0.0001197,"MEAN_MOTION_DOT":6.0e-7,"MEAN_MOTION_DDOT":0},{"OBJECT_NAME":"ONEWEB-0598","OBJECT_ID":"2023-004Q","EPOCH":"2026-01-15T02:36:51.761952","MEAN_MOTION":13.11415021,"ECCENTRICITY":0.0001253,"INCLINATION":87.8822,"RA_OF_ASC_NODE":51.5477,"ARG_OF_PERICENTER":107.2454,"MEAN_ANOMALY":252.8811,"EPHEMERIS_TYPE":0,"CLASSIFICATION_TYPE":"U","NORAD_CAT_ID":55154,"ELEMENT_SET_NO":999,"REV_AT_EPOCH":14583,"BSTAR":-0.00054197,"MEAN_MOTION_DOT":-1.79e-6,"MEAN_MOTION_DDOT":0},{"OBJECT_NAME":"ONEWEB-0599","OBJECT_ID":"2023-004R","EPOCH":"2026-01-15T00:19:28.712928","MEAN_MOTION":13.17650779,"ECCENTRICITY":0.0001603,"INCLINATION":87.9083,"RA_OF_ASC_NODE":36.3128,"ARG_OF_PERICENTER":90.5604,"MEAN_ANOMALY":269.5711,"EPHEMERIS_TYPE":0,"CLASSIFICATION_TYPE":"U","NORAD_CAT_ID":55155,"ELEMENT_SET_NO":999,"REV_AT_EPOCH":14731,"BSTAR":0.00012019,"MEAN_MOTION_DOT":6.0e-7,"MEAN_MOTION_DDOT":0},{"OBJECT_NAME":"ONEWEB-0614","OBJECT_ID":"2023-004S","EPOCH":"2026-01-15T02:29:32.739360","MEAN_MOTION":13.1141409,"ECCENTRICITY":0.0002128,"INCLINATION":87.882,"RA_OF_ASC_NODE":51.5576,"ARG_OF_PERICENTER":100.0997,"MEAN_ANOMALY":260.0371,"EPHEMERIS_TYPE":0,"CLASSIFICATION_TYPE":"U","NORAD_CAT_ID":55156,"ELEMENT_SET_NO":999,"REV_AT_EPOCH":14577,"BSTAR":-6.8674e-5,"MEAN_MOTION_DOT":-1.2e-7,"MEAN_MOTION_DDOT":0},{"OBJECT_NAME":"ONEWEB-0616","OBJECT_ID":"2023-004T","EPOCH":"2026-01-15T03:09:34.892640","MEAN_MOTION":13.176499,"ECCENTRICITY":0.0001606,"INCLINATION":87.9096,"RA_OF_ASC_NODE":36.2843,"ARG_OF_PERICENTER":60.7154,"MEAN_ANOMALY":299.4138,"EPHEMERIS_TYPE":0,"CLASSIFICATION_TYPE":"U","NORAD_CAT_ID":55157,"ELEMENT_SET_NO":999,"REV_AT_EPOCH":14754,"BSTAR":9.3866e-5,"MEAN_MOTION_DOT":4.9e-7,"MEAN_MOTION_DDOT":0},{"OBJECT_NAME":"ONEWEB-0617","OBJECT_ID":"2023-004U","EPOCH":"2026-01-15T02:12:27.929088","MEAN_MOTION":13.11414938,"ECCENTRICITY":0.000202,"INCLINATION":87.8823,"RA_OF_ASC_NODE":51.5401,"ARG_OF_PERICENTER":105.7868,"MEAN_ANOMALY":254.3482,"EPHEMERIS_TYPE":0,"CLASSIFICATION_TYPE":"U","NORAD_CAT_ID":55158,"ELEMENT_SET_NO":999,"REV_AT_EPOCH":14579,"BSTAR":0.0013761,"MEAN_MOTION_DOT":5.0e-6,"MEAN_MOTION_DDOT":0},{"OBJECT_NAME":"ONEWEB-0618","OBJECT_ID":"2023-004V","EPOCH":"2026-01-15T03:21:35.497152","MEAN_MOTION":15.11267893,"ECCENTRICITY":0.0014306,"INCLINATION":86.9061,"RA_OF_ASC_NODE":239.704,"ARG_OF_PERICENTER":133.599,"MEAN_ANOMALY":226.6439,"EPHEMERIS_TYPE":0,"CLASSIFICATION_TYPE":"U","NORAD_CAT_ID":55159,"ELEMENT_SET_NO":999,"REV_AT_EPOCH":15913,"BSTAR":0.00016175,"MEAN_MOTION_DOT":2.759e-5,"MEAN_MOTION_DDOT":0},{"OBJECT_NAME":"ONEWEB-0619","OBJECT_ID":"2023-004W","EPOCH":"2026-01-14T18:49:00.357024","MEAN_MOTION":13.17648928,"ECCENTRICITY":0.0002201,"INCLINATION":87.9093,"RA_OF_ASC_NODE":36.3271,"ARG_OF_PERICENTER":85.6864,"MEAN_ANOMALY":274.4519,"EPHEMERIS_TYPE":0,"CLASSIFICATION_TYPE":"U","NORAD_CAT_ID":55160,"ELEMENT_SET_NO":999,"REV_AT_EPOCH":14739,"BSTAR":0.00015912,"MEAN_MOTION_DOT":7.5e-7,"MEAN_MOTION_DDOT":0},{"OBJECT_NAME":"ONEWEB-0620","OBJECT_ID":"2023-004X","EPOCH":"2026-01-15T02:05:08.547072","MEAN_MOTION":13.11416037,"ECCENTRICITY":0.0001737,"INCLINATION":87.8821,"RA_OF_ASC_NODE":51.56,"ARG_OF_PERICENTER":106.2404,"MEAN_ANOMALY":253.8915,"EPHEMERIS_TYPE":0,"CLASSIFICATION_TYPE":"U","NORAD_CAT_ID":55161,"ELEMENT_SET_NO":999,"REV_AT_EPOCH":14576,"BSTAR":0.0015047,"MEAN_MOTION_DOT":5.46e-6,"MEAN_MOTION_DDOT":0},{"OBJECT_NAME":"ONEWEB-0621","OBJECT_ID":"2023-004Y","EPOCH":"2026-01-15T02:44:10.281696","MEAN_MOTION":13.11413845,"ECCENTRICITY":0.0002047,"INCLINATION":87.8831,"RA_OF_ASC_NODE":51.5286,"ARG_OF_PERICENTER":96.7265,"MEAN_ANOMALY":263.4095,"EPHEMERIS_TYPE":0,"CLASSIFICATION_TYPE":"U","NORAD_CAT_ID":55162,"ELEMENT_SET_NO":999,"REV_AT_EPOCH":14574,"BSTAR":-0.001078,"MEAN_MOTION_DOT":-3.69e-6,"MEAN_MOTION_DDOT":0},{"OBJECT_NAME":"ONEWEB-0622","OBJECT_ID":"2023-004Z","EPOCH":"2026-01-15T02:51:30.468096","MEAN_MOTION":13.11417014,"ECCENTRICITY":0.000239,"INCLINATION":87.8825,"RA_OF_ASC_NODE":51.5333,"ARG_OF_PERICENTER":111.4208,"MEAN_ANOMALY":248.7175,"EPHEMERIS_TYPE":0,"CLASSIFICATION_TYPE":"U","NORAD_CAT_ID":55163,"ELEMENT_SET_NO":999,"REV_AT_EPOCH":14573,"BSTAR":-0.0013087,"MEAN_MOTION_DOT":-4.51e-6,"MEAN_MOTION_DDOT":0},{"OBJECT_NAME":"ONEWEB-0623","OBJECT_ID":"2023-004AA","EPOCH":"2026-01-15T00:09:46.318176","MEAN_MOTION":13.17650056,"ECCENTRICITY":0.0002564,"INCLINATION":87.9083,"RA_OF_ASC_NODE":36.3296,"ARG_OF_PERICENTER":97.3589,"MEAN_ANOMALY":262.7834,"EPHEMERIS_TYPE":0,"CLASSIFICATION_TYPE":"U","NORAD_CAT_ID":55164,"ELEMENT_SET_NO":999,"REV_AT_EPOCH":14741,"BSTAR":0.00016556,"MEAN_MOTION_DOT":7.7e-7,"MEAN_MOTION_DDOT":0},{"OBJECT_NAME":"ONEWEB-0624","OBJECT_ID":"2023-004AB","EPOCH":"2026-01-15T00:20:49.756128","MEAN_MOTION":13.12922858,"ECCENTRICITY":0.0002042,"INCLINATION":87.8921,"RA_OF_ASC_NODE":21.0286,"ARG_OF_PERICENTER":93.7604,"MEAN_ANOMALY":266.3759,"EPHEMERIS_TYPE":0,"CLASSIFICATION_TYPE":"U","NORAD_CAT_ID":55165,"ELEMENT_SET_NO":999,"REV_AT_EPOCH":14797,"BSTAR":0.00040857,"MEAN_MOTION_DOT":1.61e-6,"MEAN_MOTION_DDOT":0},{"OBJECT_NAME":"ONEWEB-0625","OBJECT_ID":"2023-004AC","EPOCH":"2026-01-15T01:44:31.928928","MEAN_MOTION":13.17648938,"ECCENTRICITY":0.000176,"INCLINATION":87.9081,"RA_OF_ASC_NODE":36.3106,"ARG_OF_PERICENTER":86.8838,"MEAN_ANOMALY":273.2495,"EPHEMERIS_TYPE":0,"CLASSIFICATION_TYPE":"U","NORAD_CAT_ID":55166,"ELEMENT_SET_NO":999,"REV_AT_EPOCH":14741,"BSTAR":0.00017798,"MEAN_MOTION_DOT":8.2e-7,"MEAN_MOTION_DDOT":0},{"OBJECT_NAME":"ONEWEB-0626","OBJECT_ID":"2023-004AD","EPOCH":"2026-01-15T03:19:17.759136","MEAN_MOTION":13.17649217,"ECCENTRICITY":0.0001467,"INCLINATION":87.9085,"RA_OF_ASC_NODE":36.2977,"ARG_OF_PERICENTER":104.6486,"MEAN_ANOMALY":255.4808,"EPHEMERIS_TYPE":0,"CLASSIFICATION_TYPE":"U","NORAD_CAT_ID":55167,"ELEMENT_SET_NO":999,"REV_AT_EPOCH":14742,"BSTAR":0.00011999,"MEAN_MOTION_DOT":5.9e-7,"MEAN_MOTION_DDOT":0}]
