ONEWEB-0572             
1 55151U 23004M   26015.12827583  .00000018  00000+0  13597-4 0  9993
2 55151  87.9088  36.2900 0001705  99.1839 260.9485 13.17650575147322
ONEWEB-0573             
1 55152U 23004N   26014.91968688  .00000062  00000+0  12518-3 0  9992
2 55152  87.9172   5.9138 0001719 114.2965 245.8347 13.18686709149495
ONEWEB-0588             
1 55153U 23004P   26014.68545839  .00000060  00000+0  11970-3 0  9995
2 55153  87.9177   5.9587 0001918 100.5428 259.5920 13.18685716149465
ONEWEB-0598             
1 55154U 23004Q   26015.10893243 -.00000179  00000+0 -54197-3 0  9990
2 55154  87.8822  51.5477 0001253 107.2454 252.8811 13.11415021145837
ONEWEB-0599             
1 55155U 23004R   26015.01352677  .00000060  00000+0  12019-3 0  9996
2 55155  87.9083  36.3128 0001603  90.5604 269.5711 13.17650779147318
ONEWEB-0614             
1 55156U 23004S   26015.10385115 -.00000012  00000+0 -68674-4 0  9998
2 55156  87.8820  51.5576 0002128 100.0997 260.0371 13.11414090145772
ONEWEB-0616             
1 55157U 23004T   26015.13165385  .00000049  00000+0  93866-4 0  9996
2 55157  87.9096  36.2843 0001606  60.7154 299.4138 13.17649900147543
ONEWEB-0617             
1 55158U 23004U   26015.09198992  .00000500  00000+0  13761-2 0  9998
2 55158  87.8823  51.5401 0002020 105.7868 254.3482 13.11414938145796
ONEWEB-0618             
1 55159U 23004V   26015.13999418  .00002759  00000+0  16175-3 0  9997
2 55159  86.9061 239.7040 0014306 133.5990 226.6439 15.11267893159130
ONEWEB-0619             
1 55160U 23004W   26014.78403191  .00000075  00000+0  15912-3 0  9994
2 55160  87.9093  36.3271 0002201  85.6864 274.4519 13.17648928147394
ONEWEB-0620             
1 55161U 23004X   26015.08690448  .00000546  00000+0  15047-2 0  9993
2 55161  87.8821  51.5600 0001737 106.2404 253.8915 13.11416037145769
ONEWEB-0621             
1 55162U 23004Y   26015.11400789 -.00000369  00000+0 -10780-2 0  9999
2 55162  87.8831  51.5286 0002047  96.7265 263.4095 13.11413845145742
ONEWEB-0622             
1 55163U 23004Z   26015.11910264 -.00000451  00000+0 -13087-2 0  9999
2 55163  87.8825  51.5333 0002390 111.4208 248.7175 13.11417014145738
ONEWEB-0623             
1 55164U 23004AA  26015.00678609  .00000077  00000+0  16556-3 0  9999
2 55164  87.9083  36.3296 0002564  97.3589 262.7834 13.17650056147418
ONEWEB-0624             
1 55165U 23004AB  26015.01446477  .00000161  00000+0  40857-3 0  9992
2 55165  87.8921  21.0286 0002042  93.7604 266.3759 13.12922858147972
ONEWEB-0625             
1 55166U 23004AC  26015.07259177  .00000082  00000+0  17798-3 0  9998
2 55166  87.9081  36.3106 0001760  86.8838 273.2495 13.17648938147411
ONEWEB-0626             
1 55167U 23004AD  26015.13839999  .00000059  00000+0  11999-3 0  9993
2 55167  87.9085  36.2977 0001467 104.6486 255.4808 13.17649217147425
